[{"OBJECT_NAME":"SDA_1671","OBJECT_ID":"2025-230H","EPOCH":"2026-03-09T17:44:20.295456","MEAN_MOTION":13.85388686,"ECCENTRICITY":0.00046746,"INCLINATION":81.3008,"RA_OF_ASC_NODE":303.8297,"ARG_OF_PERICENTER":111.686,"MEAN_ANOMALY":248.4795,"EPHEMERIS_TYPE":0,"CLASSIFICATION_TYPE":"U","NORAD_CAT_ID":65981,"ELEMENT_SET_NO":999,"REV_AT_EPOCH":2005,"BSTAR":0.00023629654,"MEAN_MOTION_DOT":2.81e-6,"MEAN_MOTION_DDOT":0},{"OBJECT_NAME":"FENGYUN 1C DEB","OBJECT_ID":"1999-025CFC","EPOCH":"2026-03-09T01:24:20.662272","MEAN_MOTION":14.1876959,"ECCENTRICITY":0.01575674,"INCLINATION":98.6211,"RA_OF_ASC_NODE":103.8732,"ARG_OF_PERICENTER":285.317,"MEAN_ANOMALY":102.4272,"EPHEMERIS_TYPE":0,"CLASSIFICATION_TYPE":"U","NORAD_CAT_ID":31753,"ELEMENT_SET_NO":999,"REV_AT_EPOCH":97243,"BSTAR":0.00024387849,"MEAN_MOTION_DOT":5.29e-6,"MEAN_MOTION_DDOT":0}]
